STARLINK-35689          
1 66494U 25263K   26067.83385995  .00035661  00000+0  12987-2 0  9997
2 66494  42.9976 355.9128 0000268 198.9212 161.1629 15.27592341 18766
PELICAN-6               
1 66703U 25276AP  26068.70709364  .00077979  00000+0  29726-2 0  9998
2 66703  97.4276 144.2072 0003569 157.8575 202.2819 15.26377980 15334
